{
  "type": "FeatureCollection",
  "features": [
    {
      "type": "Feature",
      "geometry": {
        "type": "Polygon",
        "coordinates": [
          [
            [
              78.0,
              30.45
            ],
            [
              78.3,
              30.45
            ],
            [
              78.6,
              30.48
            ],
            [
              78.8,
              30.5
            ],
            [
              79.05,
              30.55
            ],
            [
              79.05,
              30.8
            ],
            [
              79.0,
              31.0
            ],
            [
              78.95,
              31.2
            ],
            [
              78.8,
              31.35
            ],
            [
              78.5,
              31.45
            ],
            [
              78.2,
              31.4
            ],
            [
              78.0,
              31.3
            ],
            [
              77.85,
              31.15
            ],
            [
              77.85,
              30.9
            ],
            [
              77.9,
              30.65
            ],
            [
              78.0,
              30.45
            ]
          ]
        ]
      },
      "properties": {
        "name": "Uttarkashi District",
        "state": "Uttarakhand",
        "area_sq_km": 8016,
        "population_2011": 330086,
        "headquarters": "Uttarkashi"
      }
    }
  ]
}