{
  "type": "FeatureCollection",
  "features": [
    {
      "type": "Feature",
      "properties": {
        "name": "Uttarkashi District",
        "state": "Uttarakhand",
        "country": "India",
        "source": "GADM 4.1 / GAUL ADM2 Reconciled Administrative Boundary",
        "area_sq_km": 8016,
        "population_2011": 330086,
        "headquarters": "Uttarkashi Town"
      },
      "geometry": {
        "type": "Polygon",
        "coordinates": [
          [
            [
              78.23741613255362,
              30.464999339514115
            ],
            [
              78.22500066048589,
              30.452583867446386
            ],
            [
              78.21306281047646,
              30.44693768489205
            ],
            [
              78.2,
              30.444999999999997
            ],
            [
              78.18277924554357,
              30.44842542103699
            ],
            [
              78.17145230221264,
              30.455214529598674
            ],
            [
              78.16031354310432,
              30.46878714684283
            ],
            [
              78.15521668729976,
              30.485589228685168
            ],
            [
              78.15586466238186,
              30.498779064490723
            ],
            [
              78.16031354310432,
              30.51121285315717
            ],
            [
              78.16818019484661,
              30.52181980515339
            ],
            [
              78.18277924554357,
              30.531574578963006
            ],
            [
              78.19758843216599,
              30.53488152726931
            ],
            [
              78.20521452959868,
              30.548547697787363
            ],
            [
              78.21499933951411,
              30.557416132553612
            ],
            [
              78.23122093550927,
              30.564135337618143
            ],
            [
              78.24441077131482,
              30.56478331270025
            ],
            [
              78.25495684704197,
              30.562384617988428
            ],
            [
              78.26907695026597,
              30.568598297271855
            ],
            [
              78.2803,
              30.585
            ],
            [
              78.2894,
              30.5921
            ],
            [
              78.2685,
              30.6152
            ],
            [
              78.2597,
              30.6182
            ],
            [
              78.2559,
              30.618
            ],
            [
              78.2458,
              30.6126
            ],
            [
              78.236,
              30.6147
            ],
            [
              78.2303,
              30.6098
            ],
            [
              78.2287,
              30.5999
            ],
            [
              78.2232,
              30.5929
            ],
            [
              78.1946,
              30.583
            ],
            [
              78.1756,
              30.5903
            ],
            [
              78.1595,
              30.593
            ],
            [
              78.1538,
              30.596
            ],
            [
              78.1533,
              30.6075
            ],
            [
              78.1541,
              30.6089
            ],
            [
              78.16,
              30.6086
            ],
            [
              78.1562,
              30.6132
            ],
            [
              78.1493,
              30.6316
            ],
            [
              78.14195082416077,
              30.63942639504956
            ],
            [
              78.1247,
              30.6365
            ],
            [
              78.1098,
              30.6429
            ],
            [
              78.0737,
              30.6353
            ],
            [
              78.0639,
              30.6314
            ],
            [
              78.057,
              30.6238
            ],
            [
              78.0602,
              30.612
            ],
            [
              78.0403,
              30.6061
            ],
            [
              78.0347,
              30.6026
            ],
            [
              78.0149,
              30.6156
            ],
            [
              78.0018,
              30.6177
            ],
            [
              78.0027,
              30.6198
            ],
            [
              78.0002,
              30.6253
            ],
            [
              78.0031,
              30.6295
            ],
            [
              78.0039,
              30.6343
            ],
            [
              77.9995,
              30.6476
            ],
            [
              78.0013,
              30.6534
            ],
            [
              78.01,
              30.656
            ],
            [
              78.0253,
              30.6479
            ],
            [
              78.0294,
              30.6505
            ],
            [
              78.0328,
              30.6584
            ],
            [
              78.0383,
              30.6647
            ],
            [
              78.0511,
              30.669
            ],
            [
              78.0576,
              30.6774
            ],
            [
              78.0571,
              30.6893
            ],
            [
              78.0612,
              30.6962
            ],
            [
              78.0622,
              30.7073
            ],
            [
              78.064,
              30.7108
            ],
            [
              78.0699,
              30.7146
            ],
            [
              78.0751,
              30.7236
            ],
            [
              78.0661,
              30.736
            ],
            [
              78.0733,
              30.7461
            ],
            [
              78.0701,
              30.7418
            ],
            [
              78.0592,
              30.746
            ],
            [
              78.0579,
              30.7545
            ],
            [
              78.053,
              30.7625
            ],
            [
              78.0457,
              30.7663
            ],
            [
              78.0379,
              30.7779
            ],
            [
              78.0279,
              30.7817
            ],
            [
              78.0247,
              30.7861
            ],
            [
              78.0164,
              30.7912
            ],
            [
              78.0147,
              30.7946
            ],
            [
              78.0158,
              30.8013
            ],
            [
              78.0139,
              30.8082
            ],
            [
              78.006,
              30.8185
            ],
            [
              77.9848,
              30.8322
            ],
            [
              77.9743,
              30.8538
            ],
            [
              77.9751,
              30.8689
            ],
            [
              77.9704,
              30.8747
            ],
            [
              77.9701,
              30.8827
            ],
            [
              77.9634,
              30.8926
            ],
            [
              77.9654,
              30.9002
            ],
            [
              77.9677,
              30.9031
            ],
            [
              77.9779,
              30.9049
            ],
            [
              77.9857,
              30.91
            ],
            [
              77.9936,
              30.9093
            ],
            [
              78.008,
              30.9169
            ],
            [
              78.0044,
              30.9311
            ],
            [
              77.9856,
              30.9588
            ],
            [
              77.9771,
              30.9619
            ],
            [
              77.9745,
              30.9687
            ],
            [
              77.9626,
              30.9744
            ],
            [
              77.9565,
              30.9799
            ],
            [
              77.9471,
              30.9781
            ],
            [
              77.9376,
              30.9789
            ],
            [
              77.9301,
              30.9756
            ],
            [
              77.924,
              30.9768
            ],
            [
              77.9144,
              30.9742
            ],
            [
              77.9028,
              30.9668
            ],
            [
              77.8946,
              30.9587
            ],
            [
              77.8875,
              30.9568
            ],
            [
              77.882,
              30.9588
            ],
            [
              77.8757,
              30.9522
            ],
            [
              77.8651,
              30.9519
            ],
            [
              77.8609,
              30.9484
            ],
            [
              77.8549,
              30.9495
            ],
            [
              77.854,
              30.9583
            ],
            [
              77.8505,
              30.9598
            ],
            [
              77.8382,
              30.9531
            ],
            [
              77.8298,
              30.9451
            ],
            [
              77.827,
              30.9385
            ],
            [
              77.8198,
              30.9379
            ],
            [
              77.8041,
              30.9405
            ],
            [
              77.7974,
              30.935
            ],
            [
              77.791,
              30.9261
            ],
            [
              77.7745,
              30.9253
            ],
            [
              77.7673,
              30.9205
            ],
            [
              77.7456,
              30.9223
            ],
            [
              77.7474,
              30.9287
            ],
            [
              77.7465,
              30.934
            ],
            [
              77.7392,
              30.9367
            ],
            [
              77.7367,
              30.9396
            ],
            [
              77.7333,
              30.9495
            ],
            [
              77.7346,
              30.9596
            ],
            [
              77.7363,
              30.9636
            ],
            [
              77.7539,
              30.9768
            ],
            [
              77.7639,
              30.977
            ],
            [
              77.7784,
              30.9723
            ],
            [
              77.8023,
              30.9551
            ],
            [
              77.8126,
              30.9528
            ],
            [
              77.8171,
              30.9536
            ],
            [
              77.8193,
              30.9568
            ],
            [
              77.8189,
              30.9601
            ],
            [
              77.8164,
              30.962
            ],
            [
              77.8046,
              30.961
            ],
            [
              77.7964,
              30.9698
            ],
            [
              77.7987,
              30.9761
            ],
            [
              77.8062,
              30.9835
            ],
            [
              77.8075,
              30.9938
            ],
            [
              77.8136,
              30.9989
            ],
            [
              77.8103,
              31.0021
            ],
            [
              77.8101,
              31.0052
            ],
            [
              77.8247,
              31.0052
            ],
            [
              77.8253,
              31.0081
            ],
            [
              77.8188,
              31.0158
            ],
            [
              77.8211,
              31.0211
            ],
            [
              77.8216,
              31.0299
            ],
            [
              77.8151,
              31.0339
            ],
            [
              77.805,
              31.0541
            ],
            [
              77.8049,
              31.0588
            ],
            [
              77.8006,
              31.0621
            ],
            [
              77.8069,
              31.0623
            ],
            [
              77.8096,
              31.0614
            ],
            [
              77.8095,
              31.0597
            ],
            [
              77.8147,
              31.0609
            ],
            [
              77.8195,
              31.0649
            ],
            [
              77.8247,
              31.0744
            ],
            [
              77.831,
              31.077
            ],
            [
              77.8375,
              31.0775
            ],
            [
              77.8428,
              31.0813
            ],
            [
              77.8504,
              31.0952
            ],
            [
              77.8515,
              31.111
            ],
            [
              77.8579,
              31.1162
            ],
            [
              77.8787,
              31.1247
            ],
            [
              77.8804,
              31.1374
            ],
            [
              77.8897,
              31.149
            ],
            [
              77.8875,
              31.1547
            ],
            [
              77.8928,
              31.1573
            ],
            [
              77.9022,
              31.1588
            ],
            [
              77.9094,
              31.1555
            ],
            [
              77.9147,
              31.1566
            ],
            [
              77.9344,
              31.1673
            ],
            [
              77.9392,
              31.1673
            ],
            [
              77.946,
              31.1762
            ],
            [
              77.9548,
              31.1788
            ],
            [
              77.9694,
              31.1652
            ],
            [
              77.9852,
              31.168
            ],
            [
              77.9926,
              31.167
            ],
            [
              78.0077,
              31.1571
            ],
            [
              78.0142,
              31.1549
            ],
            [
              78.0165,
              31.1585
            ],
            [
              78.0153,
              31.1662
            ],
            [
              78.0162,
              31.1715
            ],
            [
              78.0269,
              31.1802
            ],
            [
              78.03,
              31.1853
            ],
            [
              78.0538,
              31.1929
            ],
            [
              78.0755,
              31.1929
            ],
            [
              78.0801,
              31.1907
            ],
            [
              78.0877,
              31.1908
            ],
            [
              78.1098,
              31.2057
            ],
            [
              78.1138,
              31.2062
            ],
            [
              78.1192,
              31.214
            ],
            [
              78.1349,
              31.2161
            ],
            [
              78.1371,
              31.2224
            ],
            [
              78.1436,
              31.2241
            ],
            [
              78.1478,
              31.2316
            ],
            [
              78.1554,
              31.2303
            ],
            [
              78.1604,
              31.2319
            ],
            [
              78.1714,
              31.2318
            ],
            [
              78.1765,
              31.23
            ],
            [
              78.1876,
              31.2222
            ],
            [
              78.2003,
              31.2257
            ],
            [
              78.2068,
              31.2372
            ],
            [
              78.2184,
              31.2387
            ],
            [
              78.2326,
              31.235
            ],
            [
              78.2376,
              31.2398
            ],
            [
              78.2375,
              31.2439
            ],
            [
              78.2426,
              31.2434
            ],
            [
              78.2482,
              31.2467
            ],
            [
              78.2497,
              31.2506
            ],
            [
              78.269,
              31.2714
            ],
            [
              78.2782,
              31.2667
            ],
            [
              78.2885,
              31.2642
            ],
            [
              78.2934,
              31.266
            ],
            [
              78.2984,
              31.2882
            ],
            [
              78.3169,
              31.2851
            ],
            [
              78.3266,
              31.2882
            ],
            [
              78.3361,
              31.2875
            ],
            [
              78.3563,
              31.2909
            ],
            [
              78.3693,
              31.2879
            ],
            [
              78.3735,
              31.2792
            ],
            [
              78.3814,
              31.2815
            ],
            [
              78.3833,
              31.2743
            ],
            [
              78.3931,
              31.2623
            ],
            [
              78.3913,
              31.253
            ],
            [
              78.3975,
              31.2478
            ],
            [
              78.4144,
              31.2509
            ],
            [
              78.4195,
              31.2599
            ],
            [
              78.4271,
              31.256
            ],
            [
              78.4317,
              31.2496
            ],
            [
              78.4441,
              31.2442
            ],
            [
              78.4572,
              31.2278
            ],
            [
              78.4666,
              31.2209
            ],
            [
              78.4672,
              31.2118
            ],
            [
              78.4701,
              31.2038
            ],
            [
              78.477,
              31.2051
            ],
            [
              78.5141,
              31.2039
            ],
            [
              78.5371,
              31.2067
            ],
            [
              78.5502,
              31.2185
            ],
            [
              78.5563,
              31.2274
            ],
            [
              78.5619,
              31.2296
            ],
            [
              78.5666,
              31.2337
            ],
            [
              78.6006,
              31.2359
            ],
            [
              78.61,
              31.2311
            ],
            [
              78.6133,
              31.2274
            ],
            [
              78.6283,
              31.2219
            ],
            [
              78.6345,
              31.2219
            ],
            [
              78.638,
              31.2084
            ],
            [
              78.6455,
              31.2025
            ],
            [
              78.6477,
              31.1947
            ],
            [
              78.6598,
              31.2033
            ],
            [
              78.6761,
              31.2032
            ],
            [
              78.6956,
              31.1963
            ],
            [
              78.7075,
              31.195
            ],
            [
              78.7204,
              31.197
            ],
            [
              78.7495,
              31.1944
            ],
            [
              78.7709,
              31.1973
            ],
            [
              78.7888,
              31.2045
            ],
            [
              78.795,
              31.205
            ],
            [
              78.8032,
              31.1992
            ],
            [
              78.798,
              31.1889
            ],
            [
              78.7976,
              31.1825
            ],
            [
              78.8005,
              31.1783
            ],
            [
              78.8117,
              31.1694
            ],
            [
              78.8102,
              31.1639
            ],
            [
              78.8187,
              31.1472
            ],
            [
              78.8247,
              31.1436
            ],
            [
              78.829,
              31.1363
            ],
            [
              78.8378,
              31.1307
            ],
            [
              78.852,
              31.1262
            ],
            [
              78.8623,
              31.1124
            ],
            [
              78.88,
              31.1038
            ],
            [
              78.8907,
              31.1061
            ],
            [
              78.8968,
              31.1056
            ],
            [
              78.9038,
              31.1155
            ],
            [
              78.9078,
              31.1163
            ],
            [
              78.9127,
              31.1162
            ],
            [
              78.9205,
              31.1076
            ],
            [
              78.9421,
              31.105
            ],
            [
              78.9524,
              31.1084
            ],
            [
              78.9657,
              31.1154
            ],
            [
              78.9861,
              31.1166
            ],
            [
              78.9812,
              31.143
            ],
            [
              78.9777,
              31.1518
            ],
            [
              78.9607,
              31.1746
            ],
            [
              78.9319,
              31.1991
            ],
            [
              78.9296,
              31.205
            ],
            [
              78.9273,
              31.2251
            ],
            [
              78.9232,
              31.236
            ],
            [
              78.9069,
              31.2462
            ],
            [
              78.9069,
              31.2592
            ],
            [
              78.9131,
              31.2607
            ],
            [
              78.9166,
              31.2666
            ],
            [
              78.916,
              31.2872
            ],
            [
              78.9248,
              31.3067
            ],
            [
              78.9252,
              31.3144
            ],
            [
              78.9231,
              31.3254
            ],
            [
              78.9254,
              31.3318
            ],
            [
              78.9302,
              31.3379
            ],
            [
              78.937,
              31.3425
            ],
            [
              78.9612,
              31.352
            ],
            [
              78.9806,
              31.357
            ],
            [
              78.9897,
              31.3618
            ],
            [
              78.9934,
              31.3675
            ],
            [
              78.9946,
              31.3793
            ],
            [
              79.0068,
              31.4006
            ],
            [
              79.0158,
              31.4111
            ],
            [
              79.0282,
              31.4207
            ],
            [
              79.0342,
              31.428
            ],
            [
              79.034,
              31.4446
            ],
            [
              79.037,
              31.4574
            ],
            [
              79.0479,
              31.4704
            ],
            [
              79.0568,
              31.4723
            ],
            [
              79.0661,
              31.4638
            ],
            [
              79.0762,
              31.4583
            ],
            [
              79.0892,
              31.4552
            ],
            [
              79.1001,
              31.4479
            ],
            [
              79.1289,
              31.4387
            ],
            [
              79.1364,
              31.43
            ],
            [
              79.1486,
              31.4111
            ],
            [
              79.1635,
              31.3989
            ],
            [
              79.1742,
              31.3774
            ],
            [
              79.1882,
              31.36
            ],
            [
              79.1948,
              31.3536
            ],
            [
              79.2121,
              31.3446
            ],
            [
              79.2216,
              31.3373
            ],
            [
              79.2227,
              31.3316
            ],
            [
              79.2205,
              31.3279
            ],
            [
              79.2215,
              31.3194
            ],
            [
              79.249,
              31.2945
            ],
            [
              79.2495,
              31.2896
            ],
            [
              79.2477,
              31.2853
            ],
            [
              79.2371,
              31.2757
            ],
            [
              79.2338,
              31.2692
            ],
            [
              79.2339,
              31.254
            ],
            [
              79.2433,
              31.2469
            ],
            [
              79.2628,
              31.2453
            ],
            [
              79.2728,
              31.2307
            ],
            [
              79.2884,
              31.1956
            ],
            [
              79.2878,
              31.1884
            ],
            [
              79.2821,
              31.1809
            ],
            [
              79.2849,
              31.1701
            ],
            [
              79.2961,
              31.1571
            ],
            [
              79.2996,
              31.1492
            ],
            [
              79.3087,
              31.1401
            ],
            [
              79.3189,
              31.139
            ],
            [
              79.3232,
              31.1352
            ],
            [
              79.3251,
              31.1298
            ],
            [
              79.3419,
              31.1286
            ],
            [
              79.3539,
              31.1218
            ],
            [
              79.3606,
              31.1202
            ],
            [
              79.3792,
              31.1203
            ],
            [
              79.3819,
              31.1184
            ],
            [
              79.3864,
              31.1094
            ],
            [
              79.3901,
              31.0939
            ],
            [
              79.3924,
              31.0798
            ],
            [
              79.3743,
              31.0727
            ],
            [
              79.3625,
              31.0544
            ],
            [
              79.3459,
              31.04
            ],
            [
              79.3334,
              31.0352
            ],
            [
              79.3157,
              31.0337
            ],
            [
              79.306,
              31.0293
            ],
            [
              79.2982,
              31.0231
            ],
            [
              79.2961,
              31.0189
            ],
            [
              79.2964,
              31.0148
            ],
            [
              79.3134,
              31.0066
            ],
            [
              79.3157,
              31.0026
            ],
            [
              79.309,
              30.9906
            ],
            [
              79.3144,
              30.9763
            ],
            [
              79.3079,
              30.9687
            ],
            [
              79.2999,
              30.9683
            ],
            [
              79.2813,
              30.9763
            ],
            [
              79.2704,
              30.9731
            ],
            [
              79.2555,
              30.9654
            ],
            [
              79.2494,
              30.9599
            ],
            [
              79.2505,
              30.9558
            ],
            [
              79.2623,
              30.9499
            ],
            [
              79.2699,
              30.9407
            ],
            [
              79.2669,
              30.9313
            ],
            [
              79.2687,
              30.9228
            ],
            [
              79.2574,
              30.9172
            ],
            [
              79.2557,
              30.9111
            ],
            [
              79.2624,
              30.8841
            ],
            [
              79.2587,
              30.8804
            ],
            [
              79.2469,
              30.8752
            ],
            [
              79.2434,
              30.8629
            ],
            [
              79.2404,
              30.8605
            ],
            [
              79.2374,
              30.8539
            ],
            [
              79.2268,
              30.8467
            ],
            [
              79.2289,
              30.8333
            ],
            [
              79.2108,
              30.8252
            ],
            [
              79.2113,
              30.8193
            ],
            [
              79.2157,
              30.8136
            ],
            [
              79.2252,
              30.81
            ],
            [
              79.2262,
              30.8021
            ],
            [
              79.2384,
              30.7902
            ],
            [
              79.2401,
              30.7864
            ],
            [
              79.2467,
              30.785
            ],
            [
              79.25,
              30.776
            ],
            [
              79.2549,
              30.7707
            ],
            [
              79.276,
              30.7574
            ],
            [
              79.2665,
              30.7423
            ],
            [
              79.265,
              30.7355
            ],
            [
              79.2663,
              30.7323
            ],
            [
              79.2604,
              30.7304
            ],
            [
              79.2447,
              30.7294
            ],
            [
              79.2345,
              30.7386
            ],
            [
              79.2026,
              30.7452
            ],
            [
              79.1855,
              30.7407
            ],
            [
              79.1822,
              30.7487
            ],
            [
              79.1744,
              30.7546
            ],
            [
              79.1525,
              30.7625
            ],
            [
              79.1465,
              30.762
            ],
            [
              79.1285,
              30.7553
            ],
            [
              79.1201,
              30.7574
            ],
            [
              79.1165,
              30.7617
            ],
            [
              79.1153,
              30.7719
            ],
            [
              79.1124,
              30.7765
            ],
            [
              79.1044,
              30.7793
            ],
            [
              79.0768,
              30.7819
            ],
            [
              79.0651,
              30.7912
            ],
            [
              79.0525,
              30.8056
            ],
            [
              79.031,
              30.811
            ],
            [
              79.0185,
              30.8121
            ],
            [
              79.0034,
              30.8256
            ],
            [
              79.0033,
              30.8484
            ],
            [
              79.0011,
              30.8543
            ],
            [
              78.9853,
              30.8678
            ],
            [
              78.9771,
              30.868
            ],
            [
              78.9613,
              30.8611
            ],
            [
              78.938,
              30.8606
            ],
            [
              78.9319,
              30.8623
            ],
            [
              78.9285,
              30.8713
            ],
            [
              78.9241,
              30.8761
            ],
            [
              78.9068,
              30.8842
            ],
            [
              78.8945,
              30.8789
            ],
            [
              78.8801,
              30.8779
            ],
            [
              78.877,
              30.8804
            ],
            [
              78.8645,
              30.8828
            ],
            [
              78.8566,
              30.8768
            ],
            [
              78.8558,
              30.8702
            ],
            [
              78.8464,
              30.8644
            ],
            [
              78.8375,
              30.8546
            ],
            [
              78.8375,
              30.8432
            ],
            [
              78.8465,
              30.8236
            ],
            [
              78.846,
              30.8196
            ],
            [
              78.8417,
              30.8138
            ],
            [
              78.84,
              30.808
            ],
            [
              78.8418,
              30.805
            ],
            [
              78.8416,
              30.8004
            ],
            [
              78.8369,
              30.7911
            ],
            [
              78.8362,
              30.7857
            ],
            [
              78.8397,
              30.7735
            ],
            [
              78.8407,
              30.7608
            ],
            [
              78.8367,
              30.754
            ],
            [
              78.8351,
              30.7444
            ],
            [
              78.8323,
              30.7427
            ],
            [
              78.8221,
              30.7446
            ],
            [
              78.813,
              30.7364
            ],
            [
              78.8013,
              30.7342
            ],
            [
              78.7978,
              30.7311
            ],
            [
              78.7972,
              30.7278
            ],
            [
              78.7942,
              30.7273
            ],
            [
              78.7903,
              30.7299
            ],
            [
              78.7855,
              30.7283
            ],
            [
              78.7606,
              30.7276
            ],
            [
              78.747,
              30.724
            ],
            [
              78.7396,
              30.7174
            ],
            [
              78.7275,
              30.7229
            ],
            [
              78.7114,
              30.7373
            ],
            [
              78.7086,
              30.738
            ],
            [
              78.7022,
              30.7308
            ],
            [
              78.6891,
              30.7225
            ],
            [
              78.6734,
              30.7178
            ],
            [
              78.6675,
              30.7184
            ],
            [
              78.6572,
              30.712
            ],
            [
              78.6494,
              30.7052
            ],
            [
              78.6492,
              30.6969
            ],
            [
              78.6229,
              30.6901
            ],
            [
              78.6164,
              30.6944
            ],
            [
              78.6097,
              30.6932
            ],
            [
              78.6056,
              30.696
            ],
            [
              78.5945,
              30.6916
            ],
            [
              78.5912,
              30.6957
            ],
            [
              78.5882,
              30.6965
            ],
            [
              78.5776,
              30.6929
            ],
            [
              78.5729,
              30.6862
            ],
            [
              78.5793,
              30.6839
            ],
            [
              78.584,
              30.6794
            ],
            [
              78.5854,
              30.6707
            ],
            [
              78.5818,
              30.6421
            ],
            [
              78.5833,
              30.6356
            ],
            [
              78.582,
              30.6333
            ],
            [
              78.572,
              30.6271
            ],
            [
              78.5668,
              30.6172
            ],
            [
              78.5608,
              30.6119
            ],
            [
              78.5621,
              30.6049
            ],
            [
              78.5468,
              30.5917
            ],
            [
              78.5432,
              30.5866
            ],
            [
              78.5427,
              30.583
            ],
            [
              78.535,
              30.5764
            ],
            [
              78.5342,
              30.5721
            ],
            [
              78.5366,
              30.566
            ],
            [
              78.5309,
              30.5569
            ],
            [
              78.5332,
              30.5367
            ],
            [
              78.5254,
              30.534
            ],
            [
              78.5167,
              30.5372
            ],
            [
              78.5077,
              30.5336
            ],
            [
              78.5031,
              30.5335
            ],
            [
              78.4929,
              30.5352
            ],
            [
              78.4856,
              30.5376
            ],
            [
              78.4843,
              30.5395
            ],
            [
              78.4833,
              30.5442
            ],
            [
              78.4846,
              30.5614
            ],
            [
              78.4874,
              30.5765
            ],
            [
              78.4852,
              30.5836
            ],
            [
              78.4943,
              30.5917
            ],
            [
              78.4996,
              30.5999
            ],
            [
              78.4862,
              30.6198
            ],
            [
              78.4744,
              30.6282
            ],
            [
              78.4732,
              30.6333
            ],
            [
              78.4554,
              30.6184
            ],
            [
              78.4377,
              30.6205
            ],
            [
              78.4354,
              30.6141
            ],
            [
              78.4305,
              30.6087
            ],
            [
              78.4271,
              30.5948
            ],
            [
              78.4262,
              30.5832
            ],
            [
              78.4276,
              30.5739
            ],
            [
              78.4392,
              30.5683
            ],
            [
              78.4409,
              30.5505
            ],
            [
              78.4425,
              30.5478
            ],
            [
              78.4329,
              30.5358
            ],
            [
              78.4323,
              30.5315
            ],
            [
              78.4156,
              30.5192
            ],
            [
              78.4156,
              30.5051
            ],
            [
              78.3993,
              30.4879
            ],
            [
              78.4012,
              30.4747
            ],
            [
              78.3937,
              30.476
            ],
            [
              78.3906,
              30.4976
            ],
            [
              78.3819,
              30.5021
            ],
            [
              78.3794,
              30.5097
            ],
            [
              78.3707,
              30.5197
            ],
            [
              78.3644,
              30.5239
            ],
            [
              78.34937915094478,
              30.528274437838476
            ],
            [
              78.33854769778736,
              30.515214529598676
            ],
            [
              78.33121285315717,
              30.510313543104324
            ],
            [
              78.32092304973403,
              30.506401702728144
            ],
            [
              78.30478547040131,
              30.481452302212638
            ],
            [
              78.29121285315716,
              30.470313543104325
            ],
            [
              78.27877906449072,
              30.465864662381858
            ],
            [
              78.26558922868517,
              30.46521668729975
            ],
            [
              78.25277924554356,
              30.468425421036994
            ],
            [
              78.24223755697948,
              30.474632144971885
            ],
            [
              78.23741613255362,
              30.464999339514115
            ]
          ],
          [
            [
              78.39819556267155,
              30.889550160109792
            ],
            [
              78.425,
              30.8865
            ],
            [
              78.4,
              30.8899
            ],
            [
              78.39819556267155,
              30.889550160109792
            ]
          ],
          [
            [
              78.35606404230317,
              30.714723854289073
            ],
            [
              78.3537270773639,
              30.71645988538681
            ],
            [
              78.3541,
              30.7154
            ],
            [
              78.35606404230317,
              30.714723854289073
            ]
          ],
          [
            [
              78.5594629462495,
              30.682339630966705
            ],
            [
              78.54413429141718,
              30.6804872255489
            ],
            [
              78.5548,
              30.681
            ],
            [
              78.5594629462495,
              30.682339630966705
            ]
          ]
        ]
      }
    }
  ]
}