{
  "type": "FeatureCollection",
  "features": [
    {
      "type": "Feature",
      "id": 1,
      "geometry": {
        "type": "Point",
        "coordinates": [
          78.445,
          30.727
        ]
      },
      "properties": {
        "id": 1,
        "name": "Uttarkashi Town",
        "tehsil": "Bhatwari",
        "population": 492,
        "households": 94,
        "is_town": true,
        "elevation": 1126.0,
        "slope": 3.11,
        "aspect": 253.3,
        "curvature": -1379.7581,
        "twi": 12.82,
        "dist_river_km": 0.12,
        "dist_road_km": 0.0,
        "rainfall_mm": 120.1,
        "ndvi": 0.639,
        "lulc_class": "forest",
        "dist_disaster_km": 0.0,
        "hazard_probability": 0.5916,
        "zone": "orange",
        "vulnerability_index": 59.2,
        "nearest_disaster": "Uttarkashi Town Bhagirathi Inundation",
        "thrive_dimensions": {
          "landslide_susceptibility": 0.37,
          "flood_susceptibility": 0.67,
          "cloudburst_susceptibility": 0.19,
          "population_vulnerability": 0.16,
          "historical_recurrence": 0.4401
        },
        "score_breakdown": {
          "hazard_intensity": 37.0,
          "flood_exposure": 67.0,
          "cloudburst_risk": 19.0,
          "population_exposure": 16.0,
          "disaster_history_proximity": 44.0
        }
      }
    },
    {
      "type": "Feature",
      "id": 2,
      "geometry": {
        "type": "Point",
        "coordinates": [
          78.94,
          30.995
        ]
      },
      "properties": {
        "id": 2,
        "name": "Gangotri",
        "tehsil": "Bhatwari",
        "population": 73,
        "households": 14,
        "is_town": false,
        "elevation": 3071.0,
        "slope": 24.81,
        "aspect": 342.1,
        "curvature": 2678.354,
        "twi": 6.07,
        "dist_river_km": 0.14,
        "dist_road_km": 55.64,
        "rainfall_mm": 190.4,
        "ndvi": 0.608,
        "lulc_class": "forest",
        "dist_disaster_km": 0.0,
        "hazard_probability": 0.603,
        "zone": "orange",
        "vulnerability_index": 60.3,
        "nearest_disaster": "Gangotri Deluge",
        "thrive_dimensions": {
          "landslide_susceptibility": 0.27,
          "flood_susceptibility": 0.35,
          "cloudburst_susceptibility": 0.52,
          "population_vulnerability": 0.52,
          "historical_recurrence": 0.2187
        },
        "score_breakdown": {
          "hazard_intensity": 27.0,
          "flood_exposure": 35.0,
          "cloudburst_risk": 52.0,
          "population_exposure": 52.0,
          "disaster_history_proximity": 21.9
        }
      }
    },
    {
      "type": "Feature",
      "id": 3,
      "geometry": {
        "type": "Point",
        "coordinates": [
          78.738,
          31.036
        ]
      },
      "properties": {
        "id": 3,
        "name": "Harsil",
        "tehsil": "Bhatwari",
        "population": 70,
        "households": 13,
        "is_town": false,
        "elevation": 2614.0,
        "slope": 27.02,
        "aspect": 170.3,
        "curvature": -1460.9204,
        "twi": 10.58,
        "dist_river_km": 0.68,
        "dist_road_km": 44.17,
        "rainfall_mm": 193.9,
        "ndvi": 0.617,
        "lulc_class": "forest",
        "dist_disaster_km": 0.0,
        "hazard_probability": 0.5739,
        "zone": "orange",
        "vulnerability_index": 57.4,
        "nearest_disaster": "Harsil Slope Failure",
        "thrive_dimensions": {
          "landslide_susceptibility": 0.54,
          "flood_susceptibility": 0.42,
          "cloudburst_susceptibility": 0.63,
          "population_vulnerability": 0.41,
          "historical_recurrence": 0.2698
        },
        "score_breakdown": {
          "hazard_intensity": 54.0,
          "flood_exposure": 42.0,
          "cloudburst_risk": 63.0,
          "population_exposure": 41.0,
          "disaster_history_proximity": 27.0
        }
      }
    },
    {
      "type": "Feature",
      "id": 4,
      "geometry": {
        "type": "Point",
        "coordinates": [
          78.784,
          31.023
        ]
      },
      "properties": {
        "id": 4,
        "name": "Dharali",
        "tehsil": "Bhatwari",
        "population": 11,
        "households": 2,
        "is_town": false,
        "elevation": 3120.0,
        "slope": 34.72,
        "aspect": 124.0,
        "curvature": 2516.0295,
        "twi": 5.66,
        "dist_river_km": 0.49,
        "dist_road_km": 46.01,
        "rainfall_mm": 176.9,
        "ndvi": 0.597,
        "lulc_class": "scrubland",
        "dist_disaster_km": 0.0,
        "hazard_probability": 0.668,
        "zone": "orange",
        "vulnerability_index": 66.8,
        "nearest_disaster": "Dharali Cloudburst",
        "thrive_dimensions": {
          "landslide_susceptibility": 0.37,
          "flood_susceptibility": 0.26,
          "cloudburst_susceptibility": 0.63,
          "population_vulnerability": 0.52,
          "historical_recurrence": 0.5234
        },
        "score_breakdown": {
          "hazard_intensity": 37.0,
          "flood_exposure": 26.0,
          "cloudburst_risk": 63.0,
          "population_exposure": 52.0,
          "disaster_history_proximity": 52.3
        }
      }
    },
    {
      "type": "Feature",
      "id": 5,
      "geometry": {
        "type": "Point",
        "coordinates": [
          78.585,
          30.8
        ]
      },
      "properties": {
        "id": 5,
        "name": "Bhatwari",
        "tehsil": "Bhatwari",
        "population": 218,
        "households": 41,
        "is_town": false,
        "elevation": 2518.0,
        "slope": 30.91,
        "aspect": 109.2,
        "curvature": -243.4867,
        "twi": 10.42,
        "dist_river_km": 0.23,
        "dist_road_km": 15.57,
        "rainfall_mm": 196.6,
        "ndvi": 0.655,
        "lulc_class": "forest",
        "dist_disaster_km": 0.0,
        "hazard_probability": 0.635,
        "zone": "orange",
        "vulnerability_index": 63.5,
        "nearest_disaster": "Bhatwari Landslide",
        "thrive_dimensions": {
          "landslide_susceptibility": 0.52,
          "flood_susceptibility": 0.52,
          "cloudburst_susceptibility": 0.59,
          "population_vulnerability": 0.52,
          "historical_recurrence": 0.3915
        },
        "score_breakdown": {
          "hazard_intensity": 52.0,
          "flood_exposure": 52.0,
          "cloudburst_risk": 59.0,
          "population_exposure": 52.0,
          "disaster_history_proximity": 39.1
        }
      }
    },
    {
      "type": "Feature",
      "id": 6,
      "geometry": {
        "type": "Point",
        "coordinates": [
          78.543,
          30.777
        ]
      },
      "properties": {
        "id": 6,
        "name": "Maneri",
        "tehsil": "Bhatwari",
        "population": 310,
        "households": 59,
        "is_town": false,
        "elevation": 2185.0,
        "slope": 33.72,
        "aspect": 30.5,
        "curvature": 6492.9795,
        "twi": 5.7,
        "dist_river_km": 0.7,
        "dist_road_km": 10.84,
        "rainfall_mm": 191.1,
        "ndvi": 0.643,
        "lulc_class": "forest",
        "dist_disaster_km": 0.0,
        "hazard_probability": 0.5032,
        "zone": "orange",
        "vulnerability_index": 50.3,
        "nearest_disaster": "Maneri Landslide Dam",
        "thrive_dimensions": {
          "landslide_susceptibility": 0.34,
          "flood_susceptibility": 0.3,
          "cloudburst_susceptibility": 0.46,
          "population_vulnerability": 0.34,
          "historical_recurrence": 0.1792
        },
        "score_breakdown": {
          "hazard_intensity": 34.0,
          "flood_exposure": 30.0,
          "cloudburst_risk": 46.0,
          "population_exposure": 34.0,
          "disaster_history_proximity": 17.9
        }
      }
    },
    {
      "type": "Feature",
      "id": 7,
      "geometry": {
        "type": "Point",
        "coordinates": [
          78.48,
          30.735
        ]
      },
      "properties": {
        "id": 7,
        "name": "Gangori",
        "tehsil": "Bhatwari",
        "population": 184,
        "households": 35,
        "is_town": false,
        "elevation": 1748.0,
        "slope": 44.06,
        "aspect": 83.5,
        "curvature": 1460.9204,
        "twi": 5.33,
        "dist_river_km": 1.1,
        "dist_road_km": 3.44,
        "rainfall_mm": 165.4,
        "ndvi": 0.641,
        "lulc_class": "forest",
        "dist_disaster_km": 1.67,
        "hazard_probability": 0.485,
        "zone": "yellow",
        "vulnerability_index": 48.5,
        "nearest_disaster": "Uttarkashi NH-34 Slope Failure",
        "thrive_dimensions": {
          "landslide_susceptibility": 0.41,
          "flood_susceptibility": 0.2,
          "cloudburst_susceptibility": 0.34,
          "population_vulnerability": 0.21,
          "historical_recurrence": 0.3472
        },
        "score_breakdown": {
          "hazard_intensity": 41.0,
          "flood_exposure": 20.0,
          "cloudburst_risk": 34.0,
          "population_exposure": 21.0,
          "disaster_history_proximity": 34.7
        }
      }
    },
    {
      "type": "Feature",
      "id": 8,
      "geometry": {
        "type": "Point",
        "coordinates": [
          78.686,
          30.853
        ]
      },
      "properties": {
        "id": 8,
        "name": "Barsu",
        "tehsil": "Bhatwari",
        "population": 62,
        "households": 11,
        "is_town": false,
        "elevation": 2422.0,
        "slope": 26.35,
        "aspect": 293.9,
        "curvature": 10469.9294,
        "twi": 6.0,
        "dist_river_km": 0.12,
        "dist_road_km": 26.83,
        "rainfall_mm": 212.4,
        "ndvi": 0.6,
        "lulc_class": "forest",
        "dist_disaster_km": 0.0,
        "hazard_probability": 0.5719,
        "zone": "orange",
        "vulnerability_index": 57.2,
        "nearest_disaster": "Barsu Slope Collapse",
        "thrive_dimensions": {
          "landslide_susceptibility": 0.38,
          "flood_susceptibility": 0.4,
          "cloudburst_susceptibility": 0.52,
          "population_vulnerability": 0.44,
          "historical_recurrence": 0.2526
        },
        "score_breakdown": {
          "hazard_intensity": 38.0,
          "flood_exposure": 40.0,
          "cloudburst_risk": 52.0,
          "population_exposure": 44.0,
          "disaster_history_proximity": 25.3
        }
      }
    },
    {
      "type": "Feature",
      "id": 9,
      "geometry": {
        "type": "Point",
        "coordinates": [
          78.63,
          30.81
        ]
      },
      "properties": {
        "id": 9,
        "name": "Sukhi",
        "tehsil": "Bhatwari",
        "population": 54,
        "households": 10,
        "is_town": false,
        "elevation": 1882.0,
        "slope": 42.06,
        "aspect": 278.7,
        "curvature": 12985.9589,
        "twi": 5.4,
        "dist_river_km": 0.13,
        "dist_road_km": 19.84,
        "rainfall_mm": 178.2,
        "ndvi": 0.599,
        "lulc_class": "scrubland",
        "dist_disaster_km": 4.42,
        "hazard_probability": 0.4175,
        "zone": "yellow",
        "vulnerability_index": 41.7,
        "nearest_disaster": "Bhatwari Landslide",
        "thrive_dimensions": {
          "landslide_susceptibility": 0.48,
          "flood_susceptibility": 0.41,
          "cloudburst_susceptibility": 0.4,
          "population_vulnerability": 0.44,
          "historical_recurrence": 0.0802
        },
        "score_breakdown": {
          "hazard_intensity": 48.0,
          "flood_exposure": 41.0,
          "cloudburst_risk": 40.0,
          "population_exposure": 44.0,
          "disaster_history_proximity": 8.0
        }
      }
    },
    {
      "type": "Feature",
      "id": 10,
      "geometry": {
        "type": "Point",
        "coordinates": [
          78.65,
          30.85
        ]
      },
      "properties": {
        "id": 10,
        "name": "Jhala",
        "tehsil": "Bhatwari",
        "population": 48,
        "households": 9,
        "is_town": false,
        "elevation": 2324.0,
        "slope": 45.19,
        "aspect": 231.4,
        "curvature": 2759.5163,
        "twi": 5.29,
        "dist_river_km": 0.72,
        "dist_road_km": 23.78,
        "rainfall_mm": 209.2,
        "ndvi": 0.553,
        "lulc_class": "scrubland",
        "dist_disaster_km": 3.44,
        "hazard_probability": 0.4767,
        "zone": "yellow",
        "vulnerability_index": 47.7,
        "nearest_disaster": "Barsu Slope Collapse",
        "thrive_dimensions": {
          "landslide_susceptibility": 0.53,
          "flood_susceptibility": 0.35,
          "cloudburst_susceptibility": 0.57,
          "population_vulnerability": 0.37,
          "historical_recurrence": 0.0639
        },
        "score_breakdown": {
          "hazard_intensity": 53.0,
          "flood_exposure": 35.0,
          "cloudburst_risk": 57.0,
          "population_exposure": 37.0,
          "disaster_history_proximity": 6.4
        }
      }
    },
    {
      "type": "Feature",
      "id": 11,
      "geometry": {
        "type": "Point",
        "coordinates": [
          78.51,
          30.78
        ]
      },
      "properties": {
        "id": 11,
        "name": "Lanka",
        "tehsil": "Bhatwari",
        "population": 86,
        "households": 16,
        "is_town": false,
        "elevation": 2088.0,
        "slope": 42.03,
        "aspect": 192.2,
        "curvature": -3571.1387,
        "twi": 10.01,
        "dist_river_km": 0.6,
        "dist_road_km": 8.53,
        "rainfall_mm": 183.5,
        "ndvi": 0.578,
        "lulc_class": "scrubland",
        "dist_disaster_km": 3.15,
        "hazard_probability": 0.4616,
        "zone": "yellow",
        "vulnerability_index": 46.2,
        "nearest_disaster": "Maneri Landslide Dam",
        "thrive_dimensions": {
          "landslide_susceptibility": 0.64,
          "flood_susceptibility": 0.47,
          "cloudburst_susceptibility": 0.51,
          "population_vulnerability": 0.3,
          "historical_recurrence": 0.0784
        },
        "score_breakdown": {
          "hazard_intensity": 64.0,
          "flood_exposure": 47.0,
          "cloudburst_risk": 51.0,
          "population_exposure": 30.0,
          "disaster_history_proximity": 7.8
        }
      }
    },
    {
      "type": "Feature",
      "id": 12,
      "geometry": {
        "type": "Point",
        "coordinates": [
          78.745,
          31.03
        ]
      },
      "properties": {
        "id": 12,
        "name": "Mukhba",
        "tehsil": "Bhatwari",
        "population": 58,
        "households": 11,
        "is_town": false,
        "elevation": 2794.0,
        "slope": 29.95,
        "aspect": 150.7,
        "curvature": -1055.1092,
        "twi": 10.45,
        "dist_river_km": 0.66,
        "dist_road_km": 44.08,
        "rainfall_mm": 188.8,
        "ndvi": 0.634,
        "lulc_class": "forest",
        "dist_disaster_km": 0.94,
        "hazard_probability": 0.592,
        "zone": "orange",
        "vulnerability_index": 59.2,
        "nearest_disaster": "Harsil Slope Failure",
        "thrive_dimensions": {
          "landslide_susceptibility": 0.54,
          "flood_susceptibility": 0.42,
          "cloudburst_susceptibility": 0.63,
          "population_vulnerability": 0.41,
          "historical_recurrence": 0.2643
        },
        "score_breakdown": {
          "hazard_intensity": 54.0,
          "flood_exposure": 42.0,
          "cloudburst_risk": 63.0,
          "population_exposure": 41.0,
          "disaster_history_proximity": 26.4
        }
      }
    },
    {
      "type": "Feature",
      "id": 13,
      "geometry": {
        "type": "Point",
        "coordinates": [
          78.53,
          30.76
        ]
      },
      "properties": {
        "id": 13,
        "name": "Didsari",
        "tehsil": "Bhatwari",
        "population": 94,
        "households": 18,
        "is_town": false,
        "elevation": 2217.0,
        "slope": 44.64,
        "aspect": 346.4,
        "curvature": -2597.1918,
        "twi": 9.92,
        "dist_river_km": 1.63,
        "dist_road_km": 8.87,
        "rainfall_mm": 200.7,
        "ndvi": 0.553,
        "lulc_class": "scrubland",
        "dist_disaster_km": 2.26,
        "hazard_probability": 0.4809,
        "zone": "yellow",
        "vulnerability_index": 48.1,
        "nearest_disaster": "Maneri Landslide Dam",
        "thrive_dimensions": {
          "landslide_susceptibility": 0.57,
          "flood_susceptibility": 0.2,
          "cloudburst_susceptibility": 0.56,
          "population_vulnerability": 0.22,
          "historical_recurrence": 0.1201
        },
        "score_breakdown": {
          "hazard_intensity": 57.0,
          "flood_exposure": 20.0,
          "cloudburst_risk": 56.0,
          "population_exposure": 22.0,
          "disaster_history_proximity": 12.0
        }
      }
    },
    {
      "type": "Feature",
      "id": 14,
      "geometry": {
        "type": "Point",
        "coordinates": [
          78.49,
          30.745
        ]
      },
      "properties": {
        "id": 14,
        "name": "Seku",
        "tehsil": "Bhatwari",
        "population": 51,
        "households": 9,
        "is_town": false,
        "elevation": 1296.0,
        "slope": 15.36,
        "aspect": 319.3,
        "curvature": -3571.1387,
        "twi": 11.2,
        "dist_river_km": 0.14,
        "dist_road_km": 4.72,
        "rainfall_mm": 148.3,
        "ndvi": 0.629,
        "lulc_class": "forest",
        "dist_disaster_km": 2.93,
        "hazard_probability": 0.4143,
        "zone": "yellow",
        "vulnerability_index": 41.4,
        "nearest_disaster": "Uttarkashi NH-34 Slope Failure",
        "thrive_dimensions": {
          "landslide_susceptibility": 0.41,
          "flood_susceptibility": 0.52,
          "cloudburst_susceptibility": 0.26,
          "population_vulnerability": 0.29,
          "historical_recurrence": 0.2096
        },
        "score_breakdown": {
          "hazard_intensity": 41.0,
          "flood_exposure": 52.0,
          "cloudburst_risk": 26.0,
          "population_exposure": 29.0,
          "disaster_history_proximity": 21.0
        }
      }
    },
    {
      "type": "Feature",
      "id": 15,
      "geometry": {
        "type": "Point",
        "coordinates": [
          78.525,
          30.755
        ]
      },
      "properties": {
        "id": 15,
        "name": "Netala",
        "tehsil": "Bhatwari",
        "population": 142,
        "households": 27,
        "is_town": false,
        "elevation": 1936.0,
        "slope": 39.05,
        "aspect": 107.2,
        "curvature": 1704.4071,
        "twi": 5.51,
        "dist_river_km": 1.72,
        "dist_road_km": 8.21,
        "rainfall_mm": 188.4,
        "ndvi": 0.628,
        "lulc_class": "forest",
        "dist_disaster_km": 2.98,
        "hazard_probability": 0.4483,
        "zone": "yellow",
        "vulnerability_index": 44.8,
        "nearest_disaster": "Maneri Landslide Dam",
        "thrive_dimensions": {
          "landslide_susceptibility": 0.43,
          "flood_susceptibility": 0.11,
          "cloudburst_susceptibility": 0.49,
          "population_vulnerability": 0.26,
          "historical_recurrence": 0.1078
        },
        "score_breakdown": {
          "hazard_intensity": 43.0,
          "flood_exposure": 11.0,
          "cloudburst_risk": 49.0,
          "population_exposure": 26.0,
          "disaster_history_proximity": 10.8
        }
      }
    },
    {
      "type": "Feature",
      "id": 16,
      "geometry": {
        "type": "Point",
        "coordinates": [
          78.505,
          30.74
        ]
      },
      "properties": {
        "id": 16,
        "name": "Heena",
        "tehsil": "Bhatwari",
        "population": 115,
        "households": 22,
        "is_town": false,
        "elevation": 1347.0,
        "slope": 24.2,
        "aspect": 340.3,
        "curvature": -5437.8703,
        "twi": 10.7,
        "dist_river_km": 0.28,
        "dist_road_km": 5.88,
        "rainfall_mm": 157.4,
        "ndvi": 0.674,
        "lulc_class": "forest",
        "dist_disaster_km": 3.25,
        "hazard_probability": 0.4374,
        "zone": "yellow",
        "vulnerability_index": 43.7,
        "nearest_disaster": "Uttarkashi NH-34 Slope Failure",
        "thrive_dimensions": {
          "landslide_susceptibility": 0.37,
          "flood_susceptibility": 0.52,
          "cloudburst_susceptibility": 0.24,
          "population_vulnerability": 0.33,
          "historical_recurrence": 0.1861
        },
        "score_breakdown": {
          "hazard_intensity": 37.0,
          "flood_exposure": 52.0,
          "cloudburst_risk": 24.0,
          "population_exposure": 33.0,
          "disaster_history_proximity": 18.6
        }
      }
    },
    {
      "type": "Feature",
      "id": 17,
      "geometry": {
        "type": "Point",
        "coordinates": [
          78.56,
          30.785
        ]
      },
      "properties": {
        "id": 17,
        "name": "Lata",
        "tehsil": "Bhatwari",
        "population": 67,
        "households": 12,
        "is_town": false,
        "elevation": 2808.0,
        "slope": 43.13,
        "aspect": 254.2,
        "curvature": 4545.0856,
        "twi": 5.36,
        "dist_river_km": 1.46,
        "dist_road_km": 12.68,
        "rainfall_mm": 196.7,
        "ndvi": 0.576,
        "lulc_class": "scrubland",
        "dist_disaster_km": 1.84,
        "hazard_probability": 0.5306,
        "zone": "orange",
        "vulnerability_index": 53.1,
        "nearest_disaster": "Maneri Landslide Dam",
        "thrive_dimensions": {
          "landslide_susceptibility": 0.43,
          "flood_susceptibility": 0.25,
          "cloudburst_susceptibility": 0.59,
          "population_vulnerability": 0.34,
          "historical_recurrence": 0.1927
        },
        "score_breakdown": {
          "hazard_intensity": 43.0,
          "flood_exposure": 25.0,
          "cloudburst_risk": 59.0,
          "population_exposure": 34.0,
          "disaster_history_proximity": 19.3
        }
      }
    },
    {
      "type": "Feature",
      "id": 18,
      "geometry": {
        "type": "Point",
        "coordinates": [
          78.575,
          30.795
        ]
      },
      "properties": {
        "id": 18,
        "name": "Sainj",
        "tehsil": "Bhatwari",
        "population": 73,
        "households": 14,
        "is_town": false,
        "elevation": 2530.0,
        "slope": 35.15,
        "aspect": 19.9,
        "curvature": -486.9735,
        "twi": 10.25,
        "dist_river_km": 1.26,
        "dist_road_km": 14.47,
        "rainfall_mm": 196.7,
        "ndvi": 0.631,
        "lulc_class": "forest",
        "dist_disaster_km": 0.73,
        "hazard_probability": 0.6061,
        "zone": "orange",
        "vulnerability_index": 60.6,
        "nearest_disaster": "Bhatwari-Maneri Road Collapse",
        "thrive_dimensions": {
          "landslide_susceptibility": 0.6,
          "flood_susceptibility": 0.32,
          "cloudburst_susceptibility": 0.56,
          "population_vulnerability": 0.34,
          "historical_recurrence": 0.3293
        },
        "score_breakdown": {
          "hazard_intensity": 60.0,
          "flood_exposure": 32.0,
          "cloudburst_risk": 56.0,
          "population_exposure": 34.0,
          "disaster_history_proximity": 32.9
        }
      }
    },
    {
      "type": "Feature",
      "id": 19,
      "geometry": {
        "type": "Point",
        "coordinates": [
          78.38,
          30.6
        ]
      },
      "properties": {
        "id": 19,
        "name": "Dunda",
        "tehsil": "Dunda",
        "population": 274,
        "households": 52,
        "is_town": false,
        "elevation": 1787.0,
        "slope": 32.95,
        "aspect": 266.7,
        "curvature": 162.3245,
        "twi": 5.73,
        "dist_river_km": 0.82,
        "dist_road_km": 2.84,
        "rainfall_mm": 173.8,
        "ndvi": 0.658,
        "lulc_class": "forest",
        "dist_disaster_km": 1.46,
        "hazard_probability": 0.2923,
        "zone": "green",
        "vulnerability_index": 29.2,
        "nearest_disaster": "Dunda Nala Surge",
        "thrive_dimensions": {
          "landslide_susceptibility": 0.29,
          "flood_susceptibility": 0.2,
          "cloudburst_susceptibility": 0.42,
          "population_vulnerability": 0.21,
          "historical_recurrence": 0.0824
        },
        "score_breakdown": {
          "hazard_intensity": 29.0,
          "flood_exposure": 20.0,
          "cloudburst_risk": 42.0,
          "population_exposure": 21.0,
          "disaster_history_proximity": 8.2
        }
      }
    },
    {
      "type": "Feature",
      "id": 20,
      "geometry": {
        "type": "Point",
        "coordinates": [
          78.355,
          30.614
        ]
      },
      "properties": {
        "id": 20,
        "name": "Barkot",
        "tehsil": "Dunda",
        "population": 386,
        "households": 74,
        "is_town": true,
        "elevation": 1559.0,
        "slope": 27.99,
        "aspect": 179.5,
        "curvature": -405.8112,
        "twi": 10.54,
        "dist_river_km": 0.54,
        "dist_road_km": 0.0,
        "rainfall_mm": 156.4,
        "ndvi": 0.588,
        "lulc_class": "scrubland",
        "dist_disaster_km": 1.49,
        "hazard_probability": 0.3134,
        "zone": "yellow",
        "vulnerability_index": 31.3,
        "nearest_disaster": "Dunda Nala Surge",
        "thrive_dimensions": {
          "landslide_susceptibility": 0.51,
          "flood_susceptibility": 0.47,
          "cloudburst_susceptibility": 0.41,
          "population_vulnerability": 0.09,
          "historical_recurrence": 0.0811
        },
        "score_breakdown": {
          "hazard_intensity": 51.0,
          "flood_exposure": 47.0,
          "cloudburst_risk": 41.0,
          "population_exposure": 9.0,
          "disaster_history_proximity": 8.1
        }
      }
    },
    {
      "type": "Feature",
      "id": 21,
      "geometry": {
        "type": "Point",
        "coordinates": [
          78.42,
          30.58
        ]
      },
      "properties": {
        "id": 21,
        "name": "Tikochi",
        "tehsil": "Dunda",
        "population": 88,
        "households": 16,
        "is_town": false,
        "elevation": 2452.0,
        "slope": 16.53,
        "aspect": 289.4,
        "curvature": -568.1357,
        "twi": 11.12,
        "dist_river_km": 1.64,
        "dist_road_km": 7.24,
        "rainfall_mm": 198.8,
        "ndvi": 0.694,
        "lulc_class": "forest",
        "dist_disaster_km": 5.8,
        "hazard_probability": 0.2846,
        "zone": "green",
        "vulnerability_index": 28.5,
        "nearest_disaster": "Dunda Nala Surge",
        "thrive_dimensions": {
          "landslide_susceptibility": 0.33,
          "flood_susceptibility": 0.23,
          "cloudburst_susceptibility": 0.42,
          "population_vulnerability": 0.14,
          "historical_recurrence": 0.0134
        },
        "score_breakdown": {
          "hazard_intensity": 33.0,
          "flood_exposure": 23.0,
          "cloudburst_risk": 42.0,
          "population_exposure": 14.0,
          "disaster_history_proximity": 1.3
        }
      }
    },
    {
      "type": "Feature",
      "id": 22,
      "geometry": {
        "type": "Point",
        "coordinates": [
          78.4,
          30.59
        ]
      },
      "properties": {
        "id": 22,
        "name": "Dhanari",
        "tehsil": "Dunda",
        "population": 105,
        "households": 20,
        "is_town": false,
        "elevation": 2466.0,
        "slope": 24.29,
        "aspect": 177.1,
        "curvature": -243.4867,
        "twi": 10.7,
        "dist_river_km": 2.66,
        "dist_road_km": 5.04,
        "rainfall_mm": 204.9,
        "ndvi": 0.666,
        "lulc_class": "forest",
        "dist_disaster_km": 3.61,
        "hazard_probability": 0.3303,
        "zone": "yellow",
        "vulnerability_index": 33.0,
        "nearest_disaster": "Dunda Nala Surge",
        "thrive_dimensions": {
          "landslide_susceptibility": 0.37,
          "flood_susceptibility": 0.23,
          "cloudburst_susceptibility": 0.57,
          "population_vulnerability": 0.18,
          "historical_recurrence": 0.0296
        },
        "score_breakdown": {
          "hazard_intensity": 37.0,
          "flood_exposure": 23.0,
          "cloudburst_risk": 57.0,
          "population_exposure": 18.0,
          "disaster_history_proximity": 3.0
        }
      }
    },
    {
      "type": "Feature",
      "id": 23,
      "geometry": {
        "type": "Point",
        "coordinates": [
          78.39,
          30.625
        ]
      },
      "properties": {
        "id": 23,
        "name": "Athali",
        "tehsil": "Dunda",
        "population": 79,
        "households": 15,
        "is_town": false,
        "elevation": 2035.0,
        "slope": 29.49,
        "aspect": 294.7,
        "curvature": 1136.2714,
        "twi": 5.87,
        "dist_river_km": 1.38,
        "dist_road_km": 3.54,
        "rainfall_mm": 193.9,
        "ndvi": 0.618,
        "lulc_class": "forest",
        "dist_disaster_km": 2.53,
        "hazard_probability": 0.305,
        "zone": "yellow",
        "vulnerability_index": 30.5,
        "nearest_disaster": "Dunda Nala Surge",
        "thrive_dimensions": {
          "landslide_susceptibility": 0.34,
          "flood_susceptibility": 0.2,
          "cloudburst_susceptibility": 0.42,
          "population_vulnerability": 0.17,
          "historical_recurrence": 0.0487
        },
        "score_breakdown": {
          "hazard_intensity": 34.0,
          "flood_exposure": 20.0,
          "cloudburst_risk": 42.0,
          "population_exposure": 17.0,
          "disaster_history_proximity": 4.9
        }
      }
    },
    {
      "type": "Feature",
      "id": 24,
      "geometry": {
        "type": "Point",
        "coordinates": [
          78.42,
          30.66
        ]
      },
      "properties": {
        "id": 24,
        "name": "Matli",
        "tehsil": "Dunda",
        "population": 165,
        "households": 31,
        "is_town": false,
        "elevation": 1561.0,
        "slope": 35.27,
        "aspect": 71.2,
        "curvature": -3976.9499,
        "twi": 10.25,
        "dist_river_km": 0.79,
        "dist_road_km": 7.81,
        "rainfall_mm": 167.5,
        "ndvi": 0.587,
        "lulc_class": "scrubland",
        "dist_disaster_km": 4.4,
        "hazard_probability": 0.3934,
        "zone": "yellow",
        "vulnerability_index": 39.3,
        "nearest_disaster": "Siror Flash Flood",
        "thrive_dimensions": {
          "landslide_susceptibility": 0.57,
          "flood_susceptibility": 0.47,
          "cloudburst_susceptibility": 0.28,
          "population_vulnerability": 0.26,
          "historical_recurrence": 0.0954
        },
        "score_breakdown": {
          "hazard_intensity": 57.0,
          "flood_exposure": 47.0,
          "cloudburst_risk": 28.0,
          "population_exposure": 26.0,
          "disaster_history_proximity": 9.5
        }
      }
    },
    {
      "type": "Feature",
      "id": 25,
      "geometry": {
        "type": "Point",
        "coordinates": [
          78.24,
          30.52
        ]
      },
      "properties": {
        "id": 25,
        "name": "Chinyalisaur",
        "tehsil": "Chinyalisaur",
        "population": 430,
        "households": 82,
        "is_town": true,
        "elevation": 2103.0,
        "slope": 38.65,
        "aspect": 317.0,
        "curvature": 1298.5959,
        "twi": 5.52,
        "dist_river_km": 1.5,
        "dist_road_km": 0.0,
        "rainfall_mm": 187.9,
        "ndvi": 0.66,
        "lulc_class": "forest",
        "dist_disaster_km": 15.88,
        "hazard_probability": 0.248,
        "zone": "green",
        "vulnerability_index": 24.8,
        "nearest_disaster": "Dunda Nala Surge",
        "thrive_dimensions": {
          "landslide_susceptibility": 0.37,
          "flood_susceptibility": 0.11,
          "cloudburst_susceptibility": 0.34,
          "population_vulnerability": 0.02,
          "historical_recurrence": 0.05
        },
        "score_breakdown": {
          "hazard_intensity": 37.0,
          "flood_exposure": 11.0,
          "cloudburst_risk": 34.0,
          "population_exposure": 2.0,
          "disaster_history_proximity": 5.0
        }
      }
    },
    {
      "type": "Feature",
      "id": 26,
      "geometry": {
        "type": "Point",
        "coordinates": [
          78.27,
          30.51
        ]
      },
      "properties": {
        "id": 26,
        "name": "Lakhwar",
        "tehsil": "Chinyalisaur",
        "population": 112,
        "households": 21,
        "is_town": false,
        "elevation": 1859.0,
        "slope": 32.64,
        "aspect": 42.5,
        "curvature": 3895.7877,
        "twi": 5.74,
        "dist_river_km": 0.96,
        "dist_road_km": 3.06,
        "rainfall_mm": 185.2,
        "ndvi": 0.611,
        "lulc_class": "forest",
        "dist_disaster_km": 14.61,
        "hazard_probability": 0.2517,
        "zone": "green",
        "vulnerability_index": 25.2,
        "nearest_disaster": "Dunda Nala Surge",
        "thrive_dimensions": {
          "landslide_susceptibility": 0.34,
          "flood_susceptibility": 0.2,
          "cloudburst_susceptibility": 0.34,
          "population_vulnerability": 0.21,
          "historical_recurrence": 0.05
        },
        "score_breakdown": {
          "hazard_intensity": 34.0,
          "flood_exposure": 20.0,
          "cloudburst_risk": 34.0,
          "population_exposure": 21.0,
          "disaster_history_proximity": 5.0
        }
      }
    },
    {
      "type": "Feature",
      "id": 27,
      "geometry": {
        "type": "Point",
        "coordinates": [
          78.2,
          30.49
        ]
      },
      "properties": {
        "id": 27,
        "name": "Jakhol Chinyalisaur",
        "tehsil": "Chinyalisaur",
        "population": 76,
        "households": 14,
        "is_town": false,
        "elevation": 1298.0,
        "slope": 23.79,
        "aspect": 335.1,
        "curvature": -2759.5163,
        "twi": 10.72,
        "dist_river_km": 0.2,
        "dist_road_km": 5.05,
        "rainfall_mm": 136.6,
        "ndvi": 0.619,
        "lulc_class": "forest",
        "dist_disaster_km": 20.93,
        "hazard_probability": 0.3072,
        "zone": "yellow",
        "vulnerability_index": 30.7,
        "nearest_disaster": "Dunda Nala Surge",
        "thrive_dimensions": {
          "landslide_susceptibility": 0.41,
          "flood_susceptibility": 0.52,
          "cloudburst_susceptibility": 0.18,
          "population_vulnerability": 0.29,
          "historical_recurrence": 0.05
        },
        "score_breakdown": {
          "hazard_intensity": 41.0,
          "flood_exposure": 52.0,
          "cloudburst_risk": 18.0,
          "population_exposure": 29.0,
          "disaster_history_proximity": 5.0
        }
      }
    },
    {
      "type": "Feature",
      "id": 28,
      "geometry": {
        "type": "Point",
        "coordinates": [
          78.31,
          30.55
        ]
      },
      "properties": {
        "id": 28,
        "name": "Dharasu",
        "tehsil": "Chinyalisaur",
        "population": 158,
        "households": 30,
        "is_town": false,
        "elevation": 1005.0,
        "slope": 26.34,
        "aspect": 149.0,
        "curvature": 9090.1713,
        "twi": 6.0,
        "dist_river_km": 0.23,
        "dist_road_km": 7.44,
        "rainfall_mm": 141.1,
        "ndvi": 0.561,
        "lulc_class": "agriculture",
        "dist_disaster_km": 8.77,
        "hazard_probability": 0.3281,
        "zone": "yellow",
        "vulnerability_index": 32.8,
        "nearest_disaster": "Dunda Nala Surge",
        "thrive_dimensions": {
          "landslide_susceptibility": 0.36,
          "flood_susceptibility": 0.51,
          "cloudburst_susceptibility": 0.22,
          "population_vulnerability": 0.33,
          "historical_recurrence": 0.05
        },
        "score_breakdown": {
          "hazard_intensity": 36.0,
          "flood_exposure": 51.0,
          "cloudburst_risk": 22.0,
          "population_exposure": 33.0,
          "disaster_history_proximity": 5.0
        }
      }
    },
    {
      "type": "Feature",
      "id": 29,
      "geometry": {
        "type": "Point",
        "coordinates": [
          78.28,
          30.525
        ]
      },
      "properties": {
        "id": 29,
        "name": "Barethi",
        "tehsil": "Chinyalisaur",
        "population": 84,
        "households": 16,
        "is_town": false,
        "elevation": 2143.0,
        "slope": 31.29,
        "aspect": 130.7,
        "curvature": -2840.6785,
        "twi": 10.4,
        "dist_river_km": 2.51,
        "dist_road_km": 3.84,
        "rainfall_mm": 202.4,
        "ndvi": 0.665,
        "lulc_class": "forest",
        "dist_disaster_km": 12.73,
        "hazard_probability": 0.2711,
        "zone": "green",
        "vulnerability_index": 27.1,
        "nearest_disaster": "Dunda Nala Surge",
        "thrive_dimensions": {
          "landslide_susceptibility": 0.45,
          "flood_susceptibility": 0.23,
          "cloudburst_susceptibility": 0.41,
          "population_vulnerability": 0.09,
          "historical_recurrence": 0.05
        },
        "score_breakdown": {
          "hazard_intensity": 45.0,
          "flood_exposure": 23.0,
          "cloudburst_risk": 41.0,
          "population_exposure": 9.0,
          "disaster_history_proximity": 5.0
        }
      }
    },
    {
      "type": "Feature",
      "id": 30,
      "geometry": {
        "type": "Point",
        "coordinates": [
          78.1,
          31.1
        ]
      },
      "properties": {
        "id": 30,
        "name": "Mori",
        "tehsil": "Mori",
        "population": 172,
        "households": 33,
        "is_town": false,
        "elevation": 2301.0,
        "slope": 26.6,
        "aspect": 223.8,
        "curvature": 3165.3275,
        "twi": 5.99,
        "dist_river_km": 1.91,
        "dist_road_km": 0.0,
        "rainfall_mm": 190.4,
        "ndvi": 0.651,
        "lulc_class": "forest",
        "dist_disaster_km": 8.32,
        "hazard_probability": 0.2979,
        "zone": "green",
        "vulnerability_index": 29.8,
        "nearest_disaster": "Sankri Cloudburst",
        "thrive_dimensions": {
          "landslide_susceptibility": 0.31,
          "flood_susceptibility": 0.11,
          "cloudburst_susceptibility": 0.49,
          "population_vulnerability": 0.09,
          "historical_recurrence": 0.05
        },
        "score_breakdown": {
          "hazard_intensity": 31.0,
          "flood_exposure": 11.0,
          "cloudburst_risk": 49.0,
          "population_exposure": 9.0,
          "disaster_history_proximity": 5.0
        }
      }
    },
    {
      "type": "Feature",
      "id": 31,
      "geometry": {
        "type": "Point",
        "coordinates": [
          78.15,
          31.05
        ]
      },
      "properties": {
        "id": 31,
        "name": "Netwar",
        "tehsil": "Mori",
        "population": 104,
        "households": 20,
        "is_town": false,
        "elevation": 2857.0,
        "slope": 28.26,
        "aspect": 137.2,
        "curvature": -3246.4897,
        "twi": 10.52,
        "dist_river_km": 2.1,
        "dist_road_km": 7.31,
        "rainfall_mm": 213.6,
        "ndvi": 0.668,
        "lulc_class": "forest",
        "dist_disaster_km": 4.87,
        "hazard_probability": 0.3899,
        "zone": "yellow",
        "vulnerability_index": 39.0,
        "nearest_disaster": "Sankri Cloudburst",
        "thrive_dimensions": {
          "landslide_susceptibility": 0.44,
          "flood_susceptibility": 0.23,
          "cloudburst_susceptibility": 0.53,
          "population_vulnerability": 0.22,
          "historical_recurrence": 0.0704
        },
        "score_breakdown": {
          "hazard_intensity": 44.0,
          "flood_exposure": 23.0,
          "cloudburst_risk": 53.0,
          "population_exposure": 22.0,
          "disaster_history_proximity": 7.0
        }
      }
    },
    {
      "type": "Feature",
      "id": 32,
      "geometry": {
        "type": "Point",
        "coordinates": [
          78.185,
          31.082
        ]
      },
      "properties": {
        "id": 32,
        "name": "Sankri",
        "tehsil": "Mori",
        "population": 82,
        "households": 15,
        "is_town": false,
        "elevation": 1842.0,
        "slope": 37.41,
        "aspect": 118.3,
        "curvature": -568.1357,
        "twi": 10.17,
        "dist_river_km": 0.84,
        "dist_road_km": 8.32,
        "rainfall_mm": 177.9,
        "ndvi": 0.64,
        "lulc_class": "forest",
        "dist_disaster_km": 0.0,
        "hazard_probability": 0.6278,
        "zone": "orange",
        "vulnerability_index": 62.8,
        "nearest_disaster": "Sankri Cloudburst",
        "thrive_dimensions": {
          "landslide_susceptibility": 0.62,
          "flood_susceptibility": 0.28,
          "cloudburst_susceptibility": 0.49,
          "population_vulnerability": 0.3,
          "historical_recurrence": 0.4867
        },
        "score_breakdown": {
          "hazard_intensity": 62.0,
          "flood_exposure": 28.0,
          "cloudburst_risk": 49.0,
          "population_exposure": 30.0,
          "disaster_history_proximity": 48.7
        }
      }
    },
    {
      "type": "Feature",
      "id": 33,
      "geometry": {
        "type": "Point",
        "coordinates": [
          78.06,
          31.05
        ]
      },
      "properties": {
        "id": 33,
        "name": "Taluka",
        "tehsil": "Mori",
        "population": 45,
        "households": 8,
        "is_town": false,
        "elevation": 1592.0,
        "slope": 29.51,
        "aspect": 27.0,
        "curvature": -4301.5989,
        "twi": 10.47,
        "dist_river_km": 0.79,
        "dist_road_km": 6.73,
        "rainfall_mm": 139.6,
        "ndvi": 0.638,
        "lulc_class": "forest",
        "dist_disaster_km": 12.39,
        "hazard_probability": 0.2908,
        "zone": "green",
        "vulnerability_index": 29.1,
        "nearest_disaster": "Sankri Cloudburst",
        "thrive_dimensions": {
          "landslide_susceptibility": 0.47,
          "flood_susceptibility": 0.42,
          "cloudburst_susceptibility": 0.18,
          "population_vulnerability": 0.22,
          "historical_recurrence": 0.05
        },
        "score_breakdown": {
          "hazard_intensity": 47.0,
          "flood_exposure": 42.0,
          "cloudburst_risk": 18.0,
          "population_exposure": 22.0,
          "disaster_history_proximity": 5.0
        }
      }
    },
    {
      "type": "Feature",
      "id": 34,
      "geometry": {
        "type": "Point",
        "coordinates": [
          78.25,
          31.12
        ]
      },
      "properties": {
        "id": 34,
        "name": "Osla",
        "tehsil": "Mori",
        "population": 63,
        "households": 12,
        "is_town": false,
        "elevation": 2522.0,
        "slope": 33.59,
        "aspect": 193.5,
        "curvature": 6168.3305,
        "twi": 5.71,
        "dist_river_km": 1.79,
        "dist_road_km": 14.42,
        "rainfall_mm": 205.6,
        "ndvi": 0.673,
        "lulc_class": "forest",
        "dist_disaster_km": 7.23,
        "hazard_probability": 0.3637,
        "zone": "yellow",
        "vulnerability_index": 36.4,
        "nearest_disaster": "Sankri Valley Cloudburst",
        "thrive_dimensions": {
          "landslide_susceptibility": 0.31,
          "flood_susceptibility": 0.11,
          "cloudburst_susceptibility": 0.57,
          "population_vulnerability": 0.26,
          "historical_recurrence": 0.0344
        },
        "score_breakdown": {
          "hazard_intensity": 31.0,
          "flood_exposure": 11.0,
          "cloudburst_risk": 57.0,
          "population_exposure": 26.0,
          "disaster_history_proximity": 3.4
        }
      }
    },
    {
      "type": "Feature",
      "id": 35,
      "geometry": {
        "type": "Point",
        "coordinates": [
          78.22,
          31.11
        ]
      },
      "properties": {
        "id": 35,
        "name": "Gangad",
        "tehsil": "Mori",
        "population": 56,
        "households": 10,
        "is_town": false,
        "elevation": 2053.0,
        "slope": 28.39,
        "aspect": 200.4,
        "curvature": 892.7847,
        "twi": 5.91,
        "dist_river_km": 0.52,
        "dist_road_km": 11.45,
        "rainfall_mm": 177.9,
        "ndvi": 0.625,
        "lulc_class": "forest",
        "dist_disaster_km": 4.38,
        "hazard_probability": 0.4032,
        "zone": "yellow",
        "vulnerability_index": 40.3,
        "nearest_disaster": "Sankri Valley Cloudburst",
        "thrive_dimensions": {
          "landslide_susceptibility": 0.38,
          "flood_susceptibility": 0.26,
          "cloudburst_susceptibility": 0.47,
          "population_vulnerability": 0.3,
          "historical_recurrence": 0.0832
        },
        "score_breakdown": {
          "hazard_intensity": 38.0,
          "flood_exposure": 26.0,
          "cloudburst_risk": 47.0,
          "population_exposure": 30.0,
          "disaster_history_proximity": 8.3
        }
      }
    },
    {
      "type": "Feature",
      "id": 36,
      "geometry": {
        "type": "Point",
        "coordinates": [
          78.195,
          31.09
        ]
      },
      "properties": {
        "id": 36,
        "name": "Dhatmir",
        "tehsil": "Mori",
        "population": 49,
        "households": 9,
        "is_town": false,
        "elevation": 2090.0,
        "slope": 27.33,
        "aspect": 185.5,
        "curvature": 1217.4336,
        "twi": 5.96,
        "dist_river_km": 0.91,
        "dist_road_km": 9.09,
        "rainfall_mm": 185.1,
        "ndvi": 0.644,
        "lulc_class": "forest",
        "dist_disaster_km": 1.21,
        "hazard_probability": 0.6229,
        "zone": "orange",
        "vulnerability_index": 62.3,
        "nearest_disaster": "Sankri Valley Cloudburst",
        "thrive_dimensions": {
          "landslide_susceptibility": 0.38,
          "flood_susceptibility": 0.2,
          "cloudburst_susceptibility": 0.53,
          "population_vulnerability": 0.3,
          "historical_recurrence": 0.3582
        },
        "score_breakdown": {
          "hazard_intensity": 38.0,
          "flood_exposure": 20.0,
          "cloudburst_risk": 53.0,
          "population_exposure": 30.0,
          "disaster_history_proximity": 35.8
        }
      }
    },
    {
      "type": "Feature",
      "id": 37,
      "geometry": {
        "type": "Point",
        "coordinates": [
          78.29,
          31.14
        ]
      },
      "properties": {
        "id": 37,
        "name": "Fitadi",
        "tehsil": "Mori",
        "population": 38,
        "households": 7,
        "is_town": false,
        "elevation": 3291.0,
        "slope": 31.4,
        "aspect": 227.3,
        "curvature": 7385.7641,
        "twi": 5.79,
        "dist_river_km": 1.51,
        "dist_road_km": 18.59,
        "rainfall_mm": 206.4,
        "ndvi": 0.551,
        "lulc_class": "scrubland",
        "dist_disaster_km": 11.6,
        "hazard_probability": 0.325,
        "zone": "yellow",
        "vulnerability_index": 32.5,
        "nearest_disaster": "Sankri Valley Cloudburst",
        "thrive_dimensions": {
          "landslide_susceptibility": 0.3,
          "flood_susceptibility": 0.11,
          "cloudburst_susceptibility": 0.41,
          "population_vulnerability": 0.37,
          "historical_recurrence": 0.05
        },
        "score_breakdown": {
          "hazard_intensity": 30.0,
          "flood_exposure": 11.0,
          "cloudburst_risk": 41.0,
          "population_exposure": 37.0,
          "disaster_history_proximity": 5.0
        }
      }
    },
    {
      "type": "Feature",
      "id": 38,
      "geometry": {
        "type": "Point",
        "coordinates": [
          78.1,
          30.85
        ]
      },
      "properties": {
        "id": 38,
        "name": "Purola",
        "tehsil": "Purola",
        "population": 394,
        "households": 75,
        "is_town": true,
        "elevation": 1725.0,
        "slope": 14.21,
        "aspect": 322.7,
        "curvature": -4707.4101,
        "twi": 11.28,
        "dist_river_km": 1.02,
        "dist_road_km": 0.0,
        "rainfall_mm": 162.8,
        "ndvi": 0.68,
        "lulc_class": "forest",
        "dist_disaster_km": 0.0,
        "hazard_probability": 0.4173,
        "zone": "yellow",
        "vulnerability_index": 41.7,
        "nearest_disaster": "Purola Flash Flood",
        "thrive_dimensions": {
          "landslide_susceptibility": 0.28,
          "flood_susceptibility": 0.35,
          "cloudburst_susceptibility": 0.26,
          "population_vulnerability": 0.09,
          "historical_recurrence": 0.2199
        },
        "score_breakdown": {
          "hazard_intensity": 28.0,
          "flood_exposure": 35.0,
          "cloudburst_risk": 26.0,
          "population_exposure": 9.0,
          "disaster_history_proximity": 22.0
        }
      }
    },
    {
      "type": "Feature",
      "id": 39,
      "geometry": {
        "type": "Point",
        "coordinates": [
          78.12,
          30.87
        ]
      },
      "properties": {
        "id": 39,
        "name": "Rama Sera",
        "tehsil": "Purola",
        "population": 96,
        "households": 18,
        "is_town": false,
        "elevation": 1792.0,
        "slope": 18.72,
        "aspect": 183.8,
        "curvature": 1298.5959,
        "twi": 6.38,
        "dist_river_km": 0.45,
        "dist_road_km": 2.92,
        "rainfall_mm": 172.0,
        "ndvi": 0.695,
        "lulc_class": "forest",
        "dist_disaster_km": 2.92,
        "hazard_probability": 0.3872,
        "zone": "yellow",
        "vulnerability_index": 38.7,
        "nearest_disaster": "Purola Flash Flood",
        "thrive_dimensions": {
          "landslide_susceptibility": 0.27,
          "flood_susceptibility": 0.3,
          "cloudburst_susceptibility": 0.42,
          "population_vulnerability": 0.24,
          "historical_recurrence": 0.0702
        },
        "score_breakdown": {
          "hazard_intensity": 27.0,
          "flood_exposure": 30.0,
          "cloudburst_risk": 42.0,
          "population_exposure": 24.0,
          "disaster_history_proximity": 7.0
        }
      }
    },
    {
      "type": "Feature",
      "id": 40,
      "geometry": {
        "type": "Point",
        "coordinates": [
          78.135,
          30.885
        ]
      },
      "properties": {
        "id": 40,
        "name": "Gundiyat Gaon",
        "tehsil": "Purola",
        "population": 81,
        "households": 15,
        "is_town": false,
        "elevation": 2043.0,
        "slope": 24.84,
        "aspect": 309.3,
        "curvature": 568.1357,
        "twi": 6.07,
        "dist_river_km": 2.2,
        "dist_road_km": 5.11,
        "rainfall_mm": 181.4,
        "ndvi": 0.653,
        "lulc_class": "forest",
        "dist_disaster_km": 5.11,
        "hazard_probability": 0.2818,
        "zone": "green",
        "vulnerability_index": 28.2,
        "nearest_disaster": "Purola Flash Flood",
        "thrive_dimensions": {
          "landslide_susceptibility": 0.19,
          "flood_susceptibility": 0.11,
          "cloudburst_susceptibility": 0.36,
          "population_vulnerability": 0.14,
          "historical_recurrence": 0.0292
        },
        "score_breakdown": {
          "hazard_intensity": 19.0,
          "flood_exposure": 11.0,
          "cloudburst_risk": 36.0,
          "population_exposure": 14.0,
          "disaster_history_proximity": 2.9
        }
      }
    },
    {
      "type": "Feature",
      "id": 41,
      "geometry": {
        "type": "Point",
        "coordinates": [
          78.09,
          30.86
        ]
      },
      "properties": {
        "id": 41,
        "name": "Hudoli",
        "tehsil": "Purola",
        "population": 69,
        "households": 13,
        "is_town": false,
        "elevation": 1446.0,
        "slope": 10.89,
        "aspect": 319.1,
        "curvature": 7791.5754,
        "twi": 6.95,
        "dist_river_km": 0.6,
        "dist_road_km": 1.46,
        "rainfall_mm": 145.3,
        "ndvi": 0.71,
        "lulc_class": "forest",
        "dist_disaster_km": 1.46,
        "hazard_probability": 0.391,
        "zone": "yellow",
        "vulnerability_index": 39.1,
        "nearest_disaster": "Purola Flash Flood",
        "thrive_dimensions": {
          "landslide_susceptibility": 0.14,
          "flood_susceptibility": 0.33,
          "cloudburst_susceptibility": 0.26,
          "population_vulnerability": 0.13,
          "historical_recurrence": 0.1434
        },
        "score_breakdown": {
          "hazard_intensity": 14.0,
          "flood_exposure": 33.0,
          "cloudburst_risk": 26.0,
          "population_exposure": 13.0,
          "disaster_history_proximity": 14.3
        }
      }
    },
    {
      "type": "Feature",
      "id": 42,
      "geometry": {
        "type": "Point",
        "coordinates": [
          78.55,
          30.65
        ]
      },
      "properties": {
        "id": 42,
        "name": "Rajgarhi",
        "tehsil": "Rajgarhi",
        "population": 146,
        "households": 28,
        "is_town": false,
        "elevation": 2127.0,
        "slope": 20.0,
        "aspect": 127.2,
        "curvature": 973.9469,
        "twi": 6.31,
        "dist_river_km": 1.27,
        "dist_road_km": 13.14,
        "rainfall_mm": 166.0,
        "ndvi": 0.61,
        "lulc_class": "forest",
        "dist_disaster_km": 8.8,
        "hazard_probability": 0.2453,
        "zone": "green",
        "vulnerability_index": 24.5,
        "nearest_disaster": "Mando Debris Flow",
        "thrive_dimensions": {
          "landslide_susceptibility": 0.28,
          "flood_susceptibility": 0.16,
          "cloudburst_susceptibility": 0.3,
          "population_vulnerability": 0.34,
          "historical_recurrence": 0.05
        },
        "score_breakdown": {
          "hazard_intensity": 28.0,
          "flood_exposure": 16.0,
          "cloudburst_risk": 30.0,
          "population_exposure": 34.0,
          "disaster_history_proximity": 5.0
        }
      }
    },
    {
      "type": "Feature",
      "id": 43,
      "geometry": {
        "type": "Point",
        "coordinates": [
          78.52,
          30.67
        ]
      },
      "properties": {
        "id": 43,
        "name": "Kharadi",
        "tehsil": "Rajgarhi",
        "population": 98,
        "households": 18,
        "is_town": false,
        "elevation": 2343.0,
        "slope": 39.36,
        "aspect": 181.6,
        "curvature": -2516.0295,
        "twi": 10.1,
        "dist_river_km": 0.9,
        "dist_road_km": 9.53,
        "rainfall_mm": 185.8,
        "ndvi": 0.585,
        "lulc_class": "scrubland",
        "dist_disaster_km": 5.24,
        "hazard_probability": 0.4124,
        "zone": "yellow",
        "vulnerability_index": 41.2,
        "nearest_disaster": "Mando Debris Flow",
        "thrive_dimensions": {
          "landslide_susceptibility": 0.64,
          "flood_susceptibility": 0.37,
          "cloudburst_susceptibility": 0.61,
          "population_vulnerability": 0.3,
          "historical_recurrence": 0.0948
        },
        "score_breakdown": {
          "hazard_intensity": 64.0,
          "flood_exposure": 37.0,
          "cloudburst_risk": 61.0,
          "population_exposure": 30.0,
          "disaster_history_proximity": 9.5
        }
      }
    },
    {
      "type": "Feature",
      "id": 44,
      "geometry": {
        "type": "Point",
        "coordinates": [
          78.5,
          30.7
        ]
      },
      "properties": {
        "id": 44,
        "name": "Naugaon",
        "tehsil": "Naugaon",
        "population": 312,
        "households": 60,
        "is_town": false,
        "elevation": 2024.0,
        "slope": 36.68,
        "aspect": 6.3,
        "curvature": -649.2979,
        "twi": 10.2,
        "dist_river_km": 0.72,
        "dist_road_km": 6.02,
        "rainfall_mm": 182.5,
        "ndvi": 0.597,
        "lulc_class": "scrubland",
        "dist_disaster_km": 2.2,
        "hazard_probability": 0.563,
        "zone": "orange",
        "vulnerability_index": 56.3,
        "nearest_disaster": "Nirakot Cloudburst",
        "thrive_dimensions": {
          "landslide_susceptibility": 0.6,
          "flood_susceptibility": 0.47,
          "cloudburst_susceptibility": 0.46,
          "population_vulnerability": 0.26,
          "historical_recurrence": 0.313
        },
        "score_breakdown": {
          "hazard_intensity": 60.0,
          "flood_exposure": 47.0,
          "cloudburst_risk": 46.0,
          "population_exposure": 26.0,
          "disaster_history_proximity": 31.3
        }
      }
    },
    {
      "type": "Feature",
      "id": 45,
      "geometry": {
        "type": "Point",
        "coordinates": [
          78.46,
          30.68
        ]
      },
      "properties": {
        "id": 45,
        "name": "Siror",
        "tehsil": "Naugaon",
        "population": 185,
        "households": 35,
        "is_town": false,
        "elevation": 2007.0,
        "slope": 32.88,
        "aspect": 313.8,
        "curvature": 1298.5959,
        "twi": 5.73,
        "dist_river_km": 1.25,
        "dist_road_km": 5.41,
        "rainfall_mm": 177.0,
        "ndvi": 0.585,
        "lulc_class": "scrubland",
        "dist_disaster_km": 0.0,
        "hazard_probability": 0.546,
        "zone": "orange",
        "vulnerability_index": 54.6,
        "nearest_disaster": "Siror Flash Flood",
        "thrive_dimensions": {
          "landslide_susceptibility": 0.34,
          "flood_susceptibility": 0.21,
          "cloudburst_susceptibility": 0.46,
          "population_vulnerability": 0.26,
          "historical_recurrence": 0.4556
        },
        "score_breakdown": {
          "hazard_intensity": 34.0,
          "flood_exposure": 21.0,
          "cloudburst_risk": 46.0,
          "population_exposure": 26.0,
          "disaster_history_proximity": 45.6
        }
      }
    },
    {
      "type": "Feature",
      "id": 46,
      "geometry": {
        "type": "Point",
        "coordinates": [
          78.48,
          30.71
        ]
      },
      "properties": {
        "id": 46,
        "name": "Nirakot",
        "tehsil": "Naugaon",
        "population": 72,
        "households": 13,
        "is_town": false,
        "elevation": 1742.0,
        "slope": 21.24,
        "aspect": 305.5,
        "curvature": 6006.006,
        "twi": 6.24,
        "dist_river_km": 1.11,
        "dist_road_km": 3.82,
        "rainfall_mm": 164.7,
        "ndvi": 0.626,
        "lulc_class": "forest",
        "dist_disaster_km": 0.0,
        "hazard_probability": 0.6228,
        "zone": "orange",
        "vulnerability_index": 62.3,
        "nearest_disaster": "Nirakot Cloudburst",
        "thrive_dimensions": {
          "landslide_susceptibility": 0.23,
          "flood_susceptibility": 0.2,
          "cloudburst_susceptibility": 0.3,
          "population_vulnerability": 0.17,
          "historical_recurrence": 0.6087
        },
        "score_breakdown": {
          "hazard_intensity": 23.0,
          "flood_exposure": 20.0,
          "cloudburst_risk": 30.0,
          "population_exposure": 17.0,
          "disaster_history_proximity": 60.9
        }
      }
    },
    {
      "type": "Feature",
      "id": 47,
      "geometry": {
        "type": "Point",
        "coordinates": [
          78.47,
          30.69
        ]
      },
      "properties": {
        "id": 47,
        "name": "Mando",
        "tehsil": "Naugaon",
        "population": 46,
        "households": 8,
        "is_town": false,
        "elevation": 2106.0,
        "slope": 29.39,
        "aspect": 166.0,
        "curvature": -4382.7611,
        "twi": 10.48,
        "dist_river_km": 1.11,
        "dist_road_km": 4.74,
        "rainfall_mm": 180.4,
        "ndvi": 0.595,
        "lulc_class": "scrubland",
        "dist_disaster_km": 0.0,
        "hazard_probability": 0.6313,
        "zone": "orange",
        "vulnerability_index": 63.1,
        "nearest_disaster": "Mando Debris Flow",
        "thrive_dimensions": {
          "landslide_susceptibility": 0.54,
          "flood_susceptibility": 0.37,
          "cloudburst_susceptibility": 0.53,
          "population_vulnerability": 0.22,
          "historical_recurrence": 0.566
        },
        "score_breakdown": {
          "hazard_intensity": 54.0,
          "flood_exposure": 37.0,
          "cloudburst_risk": 53.0,
          "population_exposure": 22.0,
          "disaster_history_proximity": 56.6
        }
      }
    },
    {
      "type": "Feature",
      "id": 48,
      "geometry": {
        "type": "Point",
        "coordinates": [
          78.49,
          30.7
        ]
      },
      "properties": {
        "id": 48,
        "name": "Kankrari",
        "tehsil": "Naugaon",
        "population": 41,
        "households": 7,
        "is_town": false,
        "elevation": 1844.0,
        "slope": 31.39,
        "aspect": 343.5,
        "curvature": 7953.8998,
        "twi": 5.79,
        "dist_river_km": 0.82,
        "dist_road_km": 5.22,
        "rainfall_mm": 171.7,
        "ndvi": 0.608,
        "lulc_class": "forest",
        "dist_disaster_km": 1.46,
        "hazard_probability": 0.5534,
        "zone": "orange",
        "vulnerability_index": 55.3,
        "nearest_disaster": "Nirakot Cloudburst",
        "thrive_dimensions": {
          "landslide_susceptibility": 0.34,
          "flood_susceptibility": 0.16,
          "cloudburst_susceptibility": 0.46,
          "population_vulnerability": 0.22,
          "historical_recurrence": 0.437
        },
        "score_breakdown": {
          "hazard_intensity": 34.0,
          "flood_exposure": 16.0,
          "cloudburst_risk": 46.0,
          "population_exposure": 22.0,
          "disaster_history_proximity": 43.7
        }
      }
    },
    {
      "type": "Feature",
      "id": 49,
      "geometry": {
        "type": "Point",
        "coordinates": [
          78.442,
          30.985
        ]
      },
      "properties": {
        "id": 49,
        "name": "Janki Chatti",
        "tehsil": "Rajgarhi",
        "population": 118,
        "households": 22,
        "is_town": false,
        "elevation": 3111.0,
        "slope": 37.76,
        "aspect": 20.9,
        "curvature": -7710.4131,
        "twi": 10.16,
        "dist_river_km": 0.56,
        "dist_road_km": 28.64,
        "rainfall_mm": 185.4,
        "ndvi": 0.644,
        "lulc_class": "forest",
        "dist_disaster_km": 24.36,
        "hazard_probability": 0.3805,
        "zone": "yellow",
        "vulnerability_index": 38.0,
        "nearest_disaster": "Bhatwari-Maneri Road Collapse",
        "thrive_dimensions": {
          "landslide_susceptibility": 0.57,
          "flood_susceptibility": 0.37,
          "cloudburst_susceptibility": 0.44,
          "population_vulnerability": 0.49,
          "historical_recurrence": 0.05
        },
        "score_breakdown": {
          "hazard_intensity": 57.0,
          "flood_exposure": 37.0,
          "cloudburst_risk": 44.0,
          "population_exposure": 49.0,
          "disaster_history_proximity": 5.0
        }
      }
    },
    {
      "type": "Feature",
      "id": 50,
      "geometry": {
        "type": "Point",
        "coordinates": [
          78.45,
          30.99
        ]
      },
      "properties": {
        "id": 50,
        "name": "Kharsali",
        "tehsil": "Rajgarhi",
        "population": 89,
        "households": 17,
        "is_town": false,
        "elevation": 3017.0,
        "slope": 39.57,
        "aspect": 90.0,
        "curvature": -2678.354,
        "twi": 10.09,
        "dist_river_km": 0.55,
        "dist_road_km": 29.2,
        "rainfall_mm": 189.6,
        "ndvi": 0.676,
        "lulc_class": "forest",
        "dist_disaster_km": 24.44,
        "hazard_probability": 0.3687,
        "zone": "yellow",
        "vulnerability_index": 36.9,
        "nearest_disaster": "Bhatwari-Maneri Road Collapse",
        "thrive_dimensions": {
          "landslide_susceptibility": 0.53,
          "flood_susceptibility": 0.37,
          "cloudburst_susceptibility": 0.44,
          "population_vulnerability": 0.45,
          "historical_recurrence": 0.05
        },
        "score_breakdown": {
          "hazard_intensity": 53.0,
          "flood_exposure": 37.0,
          "cloudburst_risk": 44.0,
          "population_exposure": 45.0,
          "disaster_history_proximity": 5.0
        }
      }
    },
    {
      "type": "Feature",
      "id": 51,
      "geometry": {
        "type": "Point",
        "coordinates": [
          78.49,
          30.64
        ]
      },
      "properties": {
        "id": 51,
        "name": "Barnigad",
        "tehsil": "Rajgarhi",
        "population": 102,
        "households": 19,
        "is_town": false,
        "elevation": 2186.0,
        "slope": 24.04,
        "aspect": 358.8,
        "curvature": 1217.4336,
        "twi": 6.11,
        "dist_river_km": 1.66,
        "dist_road_km": 10.56,
        "rainfall_mm": 178.8,
        "ndvi": 0.634,
        "lulc_class": "forest",
        "dist_disaster_km": 5.28,
        "hazard_probability": 0.321,
        "zone": "yellow",
        "vulnerability_index": 32.1,
        "nearest_disaster": "Siror Flash Flood",
        "thrive_dimensions": {
          "landslide_susceptibility": 0.23,
          "flood_susceptibility": 0.07,
          "cloudburst_susceptibility": 0.36,
          "population_vulnerability": 0.26,
          "historical_recurrence": 0.062
        },
        "score_breakdown": {
          "hazard_intensity": 23.0,
          "flood_exposure": 7.0,
          "cloudburst_risk": 36.0,
          "population_exposure": 26.0,
          "disaster_history_proximity": 6.2
        }
      }
    }
  ]
}